NORAD_CAT_ID,OBJECT_NAME,OBJECT_TYPE,EPOCH,MEAN_MOTION,ECCENTRICITY,INCLINATION,RA_OF_ASC_NODE,ARG_OF_PERICENTER,MEAN_ANOMALY,BSTAR,MEAN_MOTION_DOT,MEAN_MOTION_DDOT,TLE_LINE0,TLE_LINE1,TLE_LINE2,SEMIMAJOR_AXIS,PERIOD,APOGEE,PERIGEE,DECAYED
52469.0,STARLINK-3828,PAYLOAD,2024-04-14 19:01:46,15.08842101,0.0001278,53.2183,294.1455,101.0807,259.0329,0.00014069,1.952e-05,0.0,0 STARLINK-3828,1 52469U 22049U   24105.79289459  .00001952  00000-0  14069-3 0  9998,2 52469  53.2183 294.1455 0001278 101.0807 259.0329 15.08842101107654,6917.874,95.437,540.623,538.855,0.0
52469.0,STARLINK-3828,PAYLOAD,2024-04-14 22:12:32,15.08842649,0.0001267,53.2177,293.5468,101.6624,258.451,0.00019858,2.874e-05,0.0,0 STARLINK-3828,1 52469U 22049U   24105.92537556  .00002874  00000-0  19858-3 0  9992,2 52469  53.2177 293.5468 0001267 101.6624 258.4510 15.08842649107512,6917.872,95.437,540.614,538.861,0.0
52469.0,STARLINK-3828,PAYLOAD,2024-04-15 12:31:00,15.08841225,0.0001292,53.2177,290.87,95.4297,264.6843,0.00013493,1.86e-05,0.0,0 STARLINK-3828,1 52469U 22049U   24106.52153733  .00001860  00000-0  13493-3 0  9993,2 52469  53.2177 290.8700 0001292  95.4297 264.6843 15.08841225107602,6917.877,95.437,540.635,538.848,0.0
52469.0,STARLINK-3828,PAYLOAD,2024-04-16 12:21:47,15.08845502,0.0001387,53.2172,286.4099,94.833,265.2821,0.00017494,2.498e-05,0.0,0 STARLINK-3828,1 52469U 22049U   24107.51513553  .00002498  00000-0  17494-3 0  9996,2 52469  53.2172 286.4099 0001387  94.8330 265.2821 15.08845502107756,6917.864,95.437,540.688,538.769,0.0
52469.0,STARLINK-3828,PAYLOAD,2024-04-16 17:07:56,15.08847078,0.0001352,53.2175,285.5176,94.7478,265.3668,0.00017974,2.574e-05,0.0,0 STARLINK-3828,1 52469U 22049U   24107.71385411  .00002574  00000-0  17974-3 0  9996,2 52469  53.2175 285.5176 0001352  94.7478 265.3668 15.08847078107940,6917.859,95.437,540.659,538.788,0.0
52469.0,STARLINK-3828,PAYLOAD,2024-04-17 12:12:34,15.08841372,0.0001337,53.2191,281.9566,62.6765,297.4363,7.6599e-05,9.31e-06,0.0,0 STARLINK-3828,1 52469U 22049U   24108.50873777  .00000931  00000-0  76599-4 0  9995,2 52469  53.2191 281.9566 0001337  62.6765 297.4363 15.08841372108060,6917.876,95.437,540.666,538.816,0.0
52469.0,STARLINK-3828,PAYLOAD,2024-04-17 16:58:45,15.08820529,0.0001546,53.2181,281.0601,102.7211,257.3954,-0.00023539,-4.03e-05,0.0,0 STARLINK-3828,1 52469U 22049U   24108.70746626 -.00004030  00000-0 -23539-3 0  9990,2 52469  53.2181 281.0601 0001546 102.7211 257.3954 15.08820529108099,6917.94,95.439,540.874,538.735,0.0
52469.0,STARLINK-3828,PAYLOAD,2024-04-18 18:24:55,15.08829513,9.6e-05,53.2156,276.2979,94.6503,265.4598,-8.9074e-05,-1.705e-05,0.0,0 STARLINK-3828,1 52469U 22049U   24109.76730694 -.00001705  00000-0 -89074-4 0  9998,2 52469  53.2156 276.2979 0000960  94.6503 265.4598 15.08829513108251,6917.912,95.438,540.442,539.113,0.0
52469.0,STARLINK-3828,PAYLOAD,2024-04-18 21:35:41,15.08825488,0.0001075,53.2162,275.7083,71.3516,288.7593,-9.9152e-05,-1.865e-05,0.0,0 STARLINK-3828,1 52469U 22049U   24109.89979106 -.00001865  00000-0 -99152-4 0  9990,2 52469  53.2162 275.7083 0001075  71.3516 288.7593 15.08825488108117,6917.925,95.438,540.533,539.046,0.0
52469.0,STARLINK-3828,PAYLOAD,2024-04-19 19:51:05,15.08854334,0.0001306,53.2176,271.5431,102.6537,257.4601,0.00056806,8.768e-05,0.0,0 STARLINK-3828,1 52469U 22049U   24110.82714442  .00008768  00000-0  56806-3 0  9990,2 52469  53.2176 271.5431 0001306 102.6537 257.4601 15.08854334108419,6917.837,95.437,540.605,538.798,0.0
52469.0,STARLINK-3828,PAYLOAD,2024-04-20 10:09:33,15.08840073,0.0001164,53.2156,268.8706,89.5103,270.6023,0.00023884,3.515e-05,0.0,0 STARLINK-3828,1 52469U 22049U   24111.42330997  .00003515  00000-0  23884-3 0  9991,2 52469  53.2156 268.8706 0001164  89.5103 270.6023 15.08840073108505,6917.88,95.438,540.55,538.94,0.0
52469.0,STARLINK-3828,PAYLOAD,2024-04-20 14:55:43,15.08833795,0.0001572,53.2178,267.9671,126.6807,233.433,0.00016864,2.396e-05,0.0,0 STARLINK-3828,1 52469U 22049U   24111.62203293  .00002396  00000-0  16864-3 0  9997,2 52469  53.2178 267.9671 0001572 126.6807 233.4330 15.08833795108373,6917.899,95.438,540.852,538.677,0.0
52469.0,STARLINK-3828,PAYLOAD,2024-04-20 18:06:30,15.08831251,0.0001083,53.2182,267.3761,94.4139,265.6977,0.00014458,2.013e-05,0.0,0 STARLINK-3828,1 52469U 22049U   24111.75451843  .00002013  00000-0  14458-3 0  9990,2 52469  53.2182 267.3761 0001083  94.4139 265.6977 15.08831251108558,6917.907,95.438,540.521,539.023,0.0
52469.0,STARLINK-3828,PAYLOAD,2024-04-21 10:00:21,15.08841575,0.0001524,53.2187,264.4006,142.6843,217.4255,6.1388e-05,6.89e-06,0.0,0 STARLINK-3828,1 52469U 22049U   24112.41691141  .00000689  00000-0  61388-4 0  9993,2 52469  53.2187 264.4006 0001524 142.6843 217.4255 15.08841575108498,6917.876,95.437,540.795,538.686,0.0
52469.0,STARLINK-3828,PAYLOAD,2024-04-21 19:32:38,15.08877697,0.0001391,53.218,262.6193,100.3933,259.7216,0.00039151,5.955e-05,0.0,0 STARLINK-3828,1 52469U 22049U   24112.81433224  .00005955  00000-0  39151-3 0  9996,2 52469  53.2180 262.6193 0001391 100.3933 259.7216 15.08877697108716,6917.765,95.435,540.592,538.668,0.0
52469.0,STARLINK-3828,PAYLOAD,2024-04-22 19:23:25,15.0884404,0.0001024,53.2182,258.1556,115.4832,244.6266,6.6564e-05,7.72e-06,0.0,0 STARLINK-3828,1 52469U 22049U   24113.80793786  .00000772  00000-0  66564-4 0  9999,2 52469  53.2182 258.1556 0001024 115.4832 244.6266 15.08844040108869,6917.868,95.437,540.441,539.025,0.0
52469.0,STARLINK-3828,PAYLOAD,2024-04-23 12:52:40,15.08835049,0.0001358,53.2166,254.8841,107.5821,252.5319,-0.0003912,-6.508e-05,0.0,0 STARLINK-3828,1 52469U 22049U   24114.53658416 -.00006508  00000-0 -39120-3 0  9992,2 52469  53.2166 254.8841 0001358 107.5821 252.5319 15.08835049108979,6917.896,95.438,540.7,538.821,0.0
52469.0,STARLINK-3828,PAYLOAD,2024-04-23 14:28:04,15.08833124,0.0001319,53.2164,254.5865,113.5905,246.5225,-0.00040101,-6.663e-05,0.0,0 STARLINK-3828,1 52469U 22049U   24114.60282504 -.00006663  00000-0 -40101-3 0  9994,2 52469  53.2164 254.5865 0001319 113.5905 246.5225 15.08833124108822,6917.901,95.438,540.679,538.854,0.0
52469.0,STARLINK-3828,PAYLOAD,2024-04-24 14:18:52,15.0882741,0.0001293,53.2173,250.1318,58.0005,302.1112,0.00014052,1.948e-05,0.0,0 STARLINK-3828,1 52469U 22049U   24115.59643923  .00001948  00000-0  14052-3 0  9994,2 52469  53.2173 250.1318 0001293  58.0005 302.1112 15.08827410108973,6917.919,95.438,540.678,538.889,0.0
52469.0,STARLINK-3828,PAYLOAD,2024-04-24 15:54:15,15.08830581,0.0001313,53.217,249.8337,78.9869,281.1271,0.00018118,2.596e-05,0.0,0 STARLINK-3828,1 52469U 22049U   24115.66267766  .00002596  00000-0  18118-3 0  9996,2 52469  53.2170 249.8337 0001313  78.9869 281.1271 15.08830581109143,6917.909,95.438,540.683,538.866,0.0
52469.0,STARLINK-3828,PAYLOAD,2024-04-25 12:34:15,15.08851138,0.000122,53.2177,245.9708,91.5646,268.5486,0.00052502,8.08e-05,0.0,0 STARLINK-3828,1 52469U 22049U   24116.52378997  .00008080  00000-0  52502-3 0  9990,2 52469  53.2177 245.9708 0001220  91.5646 268.5486 15.08851138109272,6917.846,95.437,540.555,538.867,0.0
52469.0,STARLINK-3828,PAYLOAD,2024-04-25 14:09:38,15.08857649,0.0001238,53.2177,245.6733,90.3013,269.8121,0.00062165,9.624e-05,0.0,0 STARLINK-3828,1 52469U 22049U   24116.59002945  .00009624  00000-0  62165-3 0  9995,2 52469  53.2177 245.6733 0001238  90.3013 269.8121 15.08857649109128,6917.826,95.436,540.548,538.835,0.0
52469.0,STARLINK-3828,PAYLOAD,2024-04-26 12:25:02,15.08846151,0.0001719,53.2185,241.514,115.8258,244.2912,1.2596e-05,-8.8e-07,0.0,0 STARLINK-3828,1 52469U 22049U   24117.51738799 -.00000088  00000-0  12596-4 0  9991,2 52469  53.2185 241.5140 0001719 115.8258 244.2912 15.08846151109426,6917.862,95.437,540.916,538.537,0.0
52469.0,STARLINK-3828,PAYLOAD,2024-04-26 14:00:25,15.08846602,0.0001402,53.2174,241.2094,102.8638,257.2511,-1.7037e-05,-5.59e-06,0.0,0 STARLINK-3828,1 52469U 22049U   24117.58362779 -.00000559  00000-0 -17037-4 0  9998,2 52469  53.2174 241.2094 0001402 102.8638 257.2511 15.08846602109279,6917.86,95.437,540.695,538.755,0.0
52469.0,STARLINK-3828,PAYLOAD,2024-04-26 15:35:48,15.08831304,0.0001683,53.2176,240.9162,78.4495,281.6686,-0.00035672,-5.959e-05,0.0,0 STARLINK-3828,1 52469U 22049U   24117.64987251 -.00005959  00000-0 -35672-3 0  9996,2 52469  53.2176 240.9162 0001683  78.4495 281.6686 15.08831304109449,6917.907,95.438,540.936,538.608,0.0
52469.0,STARLINK-3828,PAYLOAD,2024-04-27 13:51:13,15.08825718,0.0002008,53.2179,236.7564,98.4087,261.7133,-5.6937e-05,-1.194e-05,0.0,0 STARLINK-3828,1 52469U 22049U   24118.57724380 -.00001194  00000-0 -56937-4 0  9996,2 52469  53.2179 236.7564 0002008  98.4087 261.7133 15.08825718109428,6917.924,95.438,541.178,538.4,0.0
52469.0,STARLINK-3828,PAYLOAD,2024-04-27 15:26:36,15.08836362,0.0001744,53.2178,236.4547,100.7232,259.3957,0.00015186,2.129e-05,0.0,0 STARLINK-3828,1 52469U 22049U   24118.64347912  .00002129  00000-0  15186-3 0  9993,2 52469  53.2178 236.4547 0001744 100.7232 259.3957 15.08836362109592,6917.892,95.438,540.963,538.55,0.0
52469.0,STARLINK-3828,PAYLOAD,2024-04-28 13:42:01,15.0882312,0.0001561,53.2154,232.294,88.9421,271.1749,-4.4357e-06,-3.59e-06,0.0,0 STARLINK-3828,1 52469U 22049U   24119.57084829 -.00000359  00000-0 -44357-5 0  9990,2 52469  53.2154 232.2940 0001561  88.9421 271.1749 15.08823120109736,6917.932,95.439,540.877,538.717,0.0
52469.0,STARLINK-3828,PAYLOAD,2024-04-28 15:17:24,15.08828672,0.0001719,53.2154,231.996,90.1711,269.9478,9.1987e-05,1.176e-05,0.0,0 STARLINK-3828,1 52469U 22049U   24119.63708684  .00001176  00000-0  91987-4 0  9995,2 52469  53.2154 231.9960 0001719  90.1711 269.9478 15.08828672109580,6917.915,95.438,540.969,538.591,0.0
52469.0,STARLINK-3828,PAYLOAD,2024-04-29 00:49:42,15.08843129,0.0001779,53.2155,230.2119,88.7689,271.3507,0.00038996,5.924e-05,0.0,0 STARLINK-3828,1 52469U 22049U   24120.03452406  .00005924  00000-0  38996-3 0  9994,2 52469  53.2155 230.2119 0001779  88.7689 271.3507 15.08843129109801,6917.871,95.437,540.967,538.505,0.0
